{"type": "FeatureCollection", "features": [ {"type": "Feature", "properties": {"norad_id": 31272, "name": "FENGYUN 1C DEB", "group": "fengyun-1c-debris", "lat": -38.17408876028995, "lon": 30.402512376784397, "alt_km": 838.7629375479382, "timestamp": "2025-12-11T20:41:15.362353+00:00", "meta": {"OBJECT_NAME": "FENGYUN 1C DEB", "OBJECT_ID": "1999-025BNE", "EPOCH": "2025-12-09T03:32:37.485312", "MEAN_MOTION": 14.22906459, "ECCENTRICITY": 0.01066409, "INCLINATION": 99.0922, "RA_OF_ASC_NODE": 214.8338, "ARG_OF_PERICENTER": 123.1056, "MEAN_ANOMALY": 238.0412, "EPHEMERIS_TYPE": 0, "CLASSIFICATION_TYPE": "U", "NORAD_CAT_ID": 31272, "ELEMENT_SET_NO": 999, "REV_AT_EPOCH": 96938, "BSTAR": 0.00063660736, "MEAN_MOTION_DOT": 1.471e-05, "MEAN_MOTION_DDOT": 0}, "tle": {"line1": "1 31272U 99025BNE 25343.14765608  .00001471  00000+0  63661-3 0  9991", "line2": "2 31272  99.0922 214.8338 0106640 123.1056 238.0412 14.22906459969389"}}, "geometry": {"type": "Point", "coordinates": [30.402512376784397, -38.17408876028995]}}, {"type": "Feature", "properties": {"norad_id": 31274, "name": "FENGYUN 1C DEB", "group": "fengyun-1c-debris", "lat": 13.51013704425618, "lon": -12.551519127542287, "alt_km": 839.0936597542259, "timestamp": "2025-12-11T20:41:15.362365+00:00", "meta": {"OBJECT_NAME": "FENGYUN 1C DEB", "OBJECT_ID": "1999-025BNG", "EPOCH": "2025-12-10T17:54:55.160928", "MEAN_MOTION": 13.856201, "ECCENTRICITY": 0.02382488, "INCLINATION": 99.0047, "RA_OF_ASC_NODE": 164.1923, "ARG_OF_PERICENTER": 115.4764, "MEAN_ANOMALY": 247.1245, "EPHEMERIS_TYPE": 0, "CLASSIFICATION_TYPE": "U", "NORAD_CAT_ID": 31274, "ELEMENT_SET_NO": 999, "REV_AT_EPOCH": 94179, "BSTAR": 0.0012936645, "MEAN_MOTION_DOT": 1.806e-05, "MEAN_MOTION_DDOT": 0}, "tle": {"line1": "1 31274U 99025BNG 25344.74647177  .00001806  00000+0  12937-2 0  9991", "line2": "2 31274  99.0047 164.1923 0238248 115.4764 247.1245 13.85620100941790"}}, "geometry": {"type": "Point", "coordinates": [-12.551519127542287, 13.51013704425618]}}, {"type": "Feature", "properties": {"norad_id": 31275, "name": "FENGYUN 1C DEB", "group": "fengyun-1c-debris", "lat": -55.355300555694114, "lon": 42.38881433518919, "alt_km": 845.765651323778, "timestamp": "2025-12-11T20:41:15.362375+00:00", "meta": {"OBJECT_NAME": "FENGYUN 1C DEB", "OBJECT_ID": "1999-025BNH", "EPOCH": "2025-12-11T08:57:52.363008", "MEAN_MOTION": 14.02315965, "ECCENTRICITY": 0.01038444, "INCLINATION": 98.9462, "RA_OF_ASC_NODE": 28.7324, "ARG_OF_PERICENTER": 356.964, "MEAN_ANOMALY": 3.0884, "EPHEMERIS_TYPE": 0, "CLASSIFICATION_TYPE": "U", "NORAD_CAT_ID": 31275, "ELEMENT_SET_NO": 999, "REV_AT_EPOCH": 95467, "BSTAR": 0.0013217872, "MEAN_MOTION_DOT": 2.082e-05, "MEAN_MOTION_DDOT": 0}, "tle": {"line1": "1 31275U 99025BNH 25345.37352272  .00002082  00000+0  13218-2 0  9991", "line2": "2 31275  98.9462  28.7324 0103844 356.9640   3.0884 14.02315965954677"}}, "geometry": {"type": "Point", "coordinates": [42.38881433518919, -55.355300555694114]}}, {"type": "Feature", "properties": {"norad_id": 31279, "name": "FENGYUN 1C DEB", "group": "fengyun-1c-debris", "lat": 26.222349130803405, "lon": -10.059738042295779, "alt_km": 850.3709727395426, "timestamp": "2025-12-11T20:41:15.362385+00:00", "meta": {"OBJECT_NAME": "FENGYUN 1C DEB", "OBJECT_ID": "1999-025BNM", "EPOCH": "2025-12-09T18:03:08.568864", "MEAN_MOTION": 14.26297627, "ECCENTRICITY": 0.00735371, "INCLINATION": 98.517, "RA_OF_ASC_NODE": 352.1212, "ARG_OF_PERICENTER": 186.4144, "MEAN_ANOMALY": 173.6102, "EPHEMERIS_TYPE": 0, "CLASSIFICATION_TYPE": "U", "NORAD_CAT_ID": 31279, "ELEMENT_SET_NO": 999, "REV_AT_EPOCH": 97186, "BSTAR": 0.000789432, "MEAN_MOTION_DOT": 1.907e-05, "MEAN_MOTION_DDOT": 0}, "tle": {"line1": "1 31279U 99025BNM 25343.75218251  .00001907  00000+0  78943-3 0  9995", "line2": "2 31279  98.5170 352.1212 0073537 186.4144 173.6102 14.26297627971860"}}, "geometry": {"type": "Point", "coordinates": [-10.059738042295779, 26.222349130803405]}}, {"type": "Feature", "properties": {"norad_id": 31281, "name": "FENGYUN 1C DEB", "group": "fengyun-1c-debris", "lat": 37.920950333164136, "lon": 114.2935757589152, "alt_km": 466.85356221071106, "timestamp": "2025-12-11T20:41:15.362395+00:00", "meta": {"OBJECT_NAME": "FENGYUN 1C DEB", "OBJECT_ID": "1999-025BNP", "EPOCH": "2025-12-11T07:51:28.077984", "MEAN_MOTION": 15.17252227, "ECCENTRICITY": 0.01139443, "INCLINATION": 98.385, "RA_OF_ASC_NODE": 120.3009, "ARG_OF_PERICENTER": 96.4295, "MEAN_ANOMALY": 264.9925, "EPHEMERIS_TYPE": 0, "CLASSIFICATION_TYPE": "U", "NORAD_CAT_ID": 31281, "ELEMENT_SET_NO": 999, "REV_AT_EPOCH": 99710, "BSTAR": 0.0024643971, "MEAN_MOTION_DOT": 0.00058361, "MEAN_MOTION_DDOT": 0}, "tle": {"line1": "1 31281U 99025BNP 25345.32740831  .00058361  00000+0  24644-2 0  9991", "line2": "2 31281  98.3850 120.3009 0113944  96.4295 264.9925 15.17252227997109"}}, "geometry": {"type": "Point", "coordinates": [114.2935757589152, 37.920950333164136]}}, {"type": "Feature", "properties": {"norad_id": 31282, "name": "FENGYUN 1C DEB", "group": "fengyun-1c-debris", "lat": -70.11198994483696, "lon": -70.26772831044397, "alt_km": 663.735596735989, "timestamp": "2025-12-11T20:41:15.362405+00:00", "meta": {"OBJECT_NAME": "FENGYUN 1C DEB", "OBJECT_ID": "1999-025BNQ", "EPOCH": "2025-12-10T11:44:36.719232", "MEAN_MOTION": 14.43461597, "ECCENTRICITY": 0.01271359, "INCLINATION": 99.2167, "RA_OF_ASC_NODE": 261.5785, "ARG_OF_PERICENTER": 293.1808, "MEAN_ANOMALY": 65.6029, "EPHEMERIS_TYPE": 0, "CLASSIFICATION_TYPE": "U", "NORAD_CAT_ID": 31282, "ELEMENT_SET_NO": 999, "REV_AT_EPOCH": 97088, "BSTAR": 0.00043061426, "MEAN_MOTION_DOT": 1.548e-05, "MEAN_MOTION_DDOT": 0}, "tle": {"line1": "1 31282U 99025BNQ 25344.48931388  .00001548  00000+0  43061-3 0  9997", "line2": "2 31282  99.2167 261.5785 0127135 293.1808  65.6029 14.43461597970880"}}, "geometry": {"type": "Point", "coordinates": [-70.26772831044397, -70.11198994483696]}}, {"type": "Feature", "properties": {"norad_id": 31284, "name": "FENGYUN 1C DEB", "group": "fengyun-1c-debris", "lat": -7.271550700225024, "lon": 81.4596504319517, "alt_km": 865.1312905374434, "timestamp": "2025-12-11T20:41:15.362416+00:00", "meta": {"OBJECT_NAME": "FENGYUN 1C DEB", "OBJECT_ID": "1999-025BNS", "EPOCH": "2025-12-10T12:05:04.819200", "MEAN_MOTION": 13.97893195, "ECCENTRICITY": 0.01431779, "INCLINATION": 99.7224, "RA_OF_ASC_NODE": 78.7683, "ARG_OF_PERICENTER": 64.7625, "MEAN_ANOMALY": 296.8299, "EPHEMERIS_TYPE": 0, "CLASSIFICATION_TYPE": "U", "NORAD_CAT_ID": 31284, "ELEMENT_SET_NO": 999, "REV_AT_EPOCH": 95131, "BSTAR": 0.00085263573, "MEAN_MOTION_DOT": 1.27e-05, "MEAN_MOTION_DDOT": 0}, "tle": {"line1": "1 31284U 99025BNS 25344.50352800  .00001270  00000+0  85264-3 0  9991", "line2": "2 31284  99.7224  78.7683 0143177  64.7625 296.8299 13.97893195951314"}}, "geometry": {"type": "Point", "coordinates": [81.4596504319517, -7.271550700225024]}}, {"type": "Feature", "properties": {"norad_id": 31285, "name": "FENGYUN 1C DEB", "group": "fengyun-1c-debris", "lat": -71.49357465431041, "lon": 119.69758352632589, "alt_km": 747.2098768430506, "timestamp": "2025-12-11T20:41:15.362426+00:00", "meta": {"OBJECT_NAME": "FENGYUN 1C DEB", "OBJECT_ID": "1999-025BNT", "EPOCH": "2025-12-11T10:09:15.203232", "MEAN_MOTION": 14.26037895, "ECCENTRICITY": 0.01996034, "INCLINATION": 98.5188, "RA_OF_ASC_NODE": 325.8722, "ARG_OF_PERICENTER": 190.7189, "MEAN_ANOMALY": 328.8482, "EPHEMERIS_TYPE": 0, "CLASSIFICATION_TYPE": "U", "NORAD_CAT_ID": 31285, "ELEMENT_SET_NO": 999, "REV_AT_EPOCH": 97280, "BSTAR": 0.00028481858, "MEAN_MOTION_DOT": 7.92e-06, "MEAN_MOTION_DDOT": 0}, "tle": {"line1": "1 31285U 99025BNT 25345.42309263  .00000792  00000+0  28482-3 0  9996", "line2": "2 31285  98.5188 325.8722 0199603 190.7189 328.8482 14.26037895972808"}}, "geometry": {"type": "Point", "coordinates": [119.69758352632589, -71.49357465431041]}}, {"type": "Feature", "properties": {"norad_id": 31286, "name": "FENGYUN 1C DEB", "group": "fengyun-1c-debris", "lat": 26.638359844685606, "lon": -129.2473576772212, "alt_km": 829.7371383643913, "timestamp": "2025-12-11T20:41:15.362436+00:00", "meta": {"OBJECT_NAME": "FENGYUN 1C DEB", "OBJECT_ID": "1999-025BNU", "EPOCH": "2025-12-11T10:26:01.154112", "MEAN_MOTION": 14.22731752, "ECCENTRICITY": 0.00803692, "INCLINATION": 100.8574, "RA_OF_ASC_NODE": 235.7515, "ARG_OF_PERICENTER": 283.1643, "MEAN_ANOMALY": 76.0569, "EPHEMERIS_TYPE": 0, "CLASSIFICATION_TYPE": "U", "NORAD_CAT_ID": 31286, "ELEMENT_SET_NO": 999, "REV_AT_EPOCH": 64001, "BSTAR": 0.0058507666, "MEAN_MOTION_DOT": 0.00013517, "MEAN_MOTION_DDOT": 0}, "tle": {"line1": "1 31286U 99025BNU 25345.43473558  .00013517  00000+0  58508-2 0  9997", "line2": "2 31286 100.8574 235.7515 0080369 283.1643  76.0569 14.22731752640016"}}, "geometry": {"type": "Point", "coordinates": [-129.2473576772212, 26.638359844685606]}}, {"type": "Feature", "properties": {"norad_id": 31287, "name": "FENGYUN 1C DEB", "group": "fengyun-1c-debris", "lat": 59.36636974504775, "lon": 25.47413618602782, "alt_km": 772.7591120737616, "timestamp": "2025-12-11T20:41:15.362448+00:00", "meta": {"OBJECT_NAME": "FENGYUN 1C DEB", "OBJECT_ID": "1999-025BNV", "EPOCH": "2025-12-10T09:05:30.793632", "MEAN_MOTION": 14.27994114, "ECCENTRICITY": 0.00277142, "INCLINATION": 99.4101, "RA_OF_ASC_NODE": 40.14, "ARG_OF_PERICENTER": 69.5923, "MEAN_ANOMALY": 290.8228, "EPHEMERIS_TYPE": 0, "CLASSIFICATION_TYPE": "U", "NORAD_CAT_ID": 31287, "ELEMENT_SET_NO": 999, "REV_AT_EPOCH": 96652, "BSTAR": 0.0021830392, "MEAN_MOTION_DOT": 5.391e-05, "MEAN_MOTION_DDOT": 0}, "tle": {"line1": "1 31287U 99025BNV 25344.37882863  .00005391  00000+0  21830-2 0  9992", "line2": "2 31287  99.4101  40.1400 0027714  69.5923 290.8228 14.27994114966522"}}, "geometry": {"type": "Point", "coordinates": [25.47413618602782, 59.36636974504775]}}]}